GLOBALSTAR M084         
1 38040U 11080A   24198.82621677 -.00000093  00000+0  61079-4 0  9997
2 38040  52.0029 349.4354 0000978  85.1320  66.6412 12.62264233580313
GLOBALSTAR M080         
1 38041U 11080B   24199.48879899 -.00000090  00000+0  75100-4 0  9999
2 38041  52.0080 348.9068 0000869  70.9661 333.4684 12.62262899580666
GLOBALSTAR M082         
1 38042U 11080C   24199.57429644 -.00000090  00000+0  76412-4 0  9996
2 38042  52.0091 304.0596 0001089 146.3624 226.6616 12.62271154581416
GLOBALSTAR M092         
1 38043U 11080D   24198.85479490 -.00000076  00000+0  15705-3 0  9992
2 38043  52.0097  36.6056 0000970  80.4501  21.6790 12.62263634579600
GLOBALSTAR M090         
1 38044U 11080E   24198.83961043 -.00000088  00000+0  88731-4 0  9994
2 38044  51.9898 300.5369 0000782 139.5819  12.8280 12.62264767581266
GLOBALSTAR M086         
1 38045U 11080F   24198.78349431 -.00000085  00000+0  10722-3 0  9991
2 38045  51.9908 301.2317 0000291 279.2925 218.7899 12.62264412581209
GLOBALSTAR M097         
1 39072U 13005A   24199.49276687 -.00000100  00000+0  19113-4 0  9994
2 39072  52.0027 213.2811 0000223 223.4069 136.6780 12.62268949528623
GLOBALSTAR M093         
1 39073U 13005B   24198.43652768 -.00000075  00000+0  15774-3 0  9995
2 39073  51.9781 210.3335 0000370 233.6913 126.3920 12.62275944528368
